IRIDIUM 156             
1 43576U 18061H   26166.16391670  .00000159  00000+0  49792-4 0  9994
2 43576  86.3961  57.5755 0002054  81.0848 279.0580 14.34217962413080
IRIDIUM 164             
1 43577U 18061J   26166.14488921  .00000103  00000+0  29546-4 0  9993
2 43577  86.3962  57.6238 0002103  89.0248 271.1189 14.34218165413125
IRIDIUM 159             
1 43578U 18061K   26166.18294549  .00000099  00000+0  28428-4 0  9991
2 43578  86.3961  57.5446 0002270  83.9235 276.2220 14.34217793413093
IRIDIUM 180             
1 43922U 19002A   26165.97313583  .00000023  00000+0  12447-5 0  9998
2 43922  86.3970 354.5233 0002264  89.4016 270.7439 14.34217652388671
IRIDIUM 176             
1 43923U 19002B   26166.05195417  .00000666  00000+0  10172-3 0  9997
2 43923  86.6090 354.4342 0002264  92.3196 267.8280 14.72264492398937
IRIDIUM 168             
1 43924U 19002C   26165.96679264  .00000057  00000+0  13386-4 0  9999
2 43924  86.3974 354.6033 0002168  88.9196 271.2248 14.34218157388655
IRIDIUM 173             
1 43925U 19002D   26166.02387605  .00000113  00000+0  33288-4 0  9999
2 43925  86.3970 354.4681 0002214  87.2562 272.8887 14.34218162388641
IRIDIUM 169             
1 43926U 19002E   26166.09601552  .00000246  00000+0  73907-4 0  9996
2 43926  86.4225  26.0678 0001922  71.8873 288.2534 14.38608113389928
IRIDIUM 172             
1 43927U 19002F   26166.01753323  .00000132  00000+0  40101-4 0  9997
2 43927  86.3969 354.4789 0002254  88.9097 271.2357 14.34217775388650
IRIDIUM 175             
1 43928U 19002G   26166.05776628  .00000270  00000+0  73821-4 0  9993
2 43928  86.4510 291.4111 0002220 186.0178 174.0997 14.43611639398676
IRIDIUM 171             
1 43929U 19002H   26166.06827387  .00000497  00000+0  17055-3 0  9991
2 43929  86.3975 354.7635 0001911  87.3449 272.7965 14.34217657388655
IRIDIUM 170             
1 43930U 19002J   26166.05813543  .00000668  00000+0  10203-3 0  9999
2 43930  86.6090 354.4340 0002349  88.6741 271.4745 14.72264988398949
IRIDIUM 167             
1 43931U 19002K   26166.06193124  .00000005  00000+0 -52179-5 0  9993
2 43931  86.3967 354.4826 0001756  90.0525 270.0872 14.34217580388654
IRIDIUM 181             
1 56726U 23068S   26166.16523196  .00000267  00000+0  73400-4 0  9991
2 56726  86.4501  57.6357 0002328  88.3694 271.7773 14.43311390162145
IRIDIUM 177             
1 56727U 23068T   26165.95651933  .00000943  00000+0  12062-3 0  9996
2 56727  86.1960 329.8510 0002377  87.1108 273.0385 14.80226546166033
IRIDIUM 174             
1 56728U 23068U   26166.04579350  .00000691  00000+0  10560-3 0  9991
2 56728  86.6098 354.5865 0002484  84.1624 275.9876 14.72261272165703
IRIDIUM 178             
1 56729U 23068V   26166.08085575  .00000855  00000+0  10907-3 0  9994
2 56729  86.6539  26.2405 0002649  86.4810 273.6715 14.80230532166052
IRIDIUM 179             
1 56730U 23068W   26166.14305906  .00000699  00000+0  88485-4 0  9999
2 56730  86.6781  35.1885 0002440  88.7067 271.4434 14.80233798166064
